0 SARAL
1 39086U 13009A   13281.78549565  .00001220  00000-0  46861-3 0  2540
2 39086 098.5486 108.6349 0001069 042.3664 317.7681 14.32266093 32240
0 SARAL
1 39086U 13009A   13282.83337916  .00002098  00000-0  79369-3 0  2556
2 39086 098.5473 109.6683 0001028 033.9941 326.1280 14.32273932 32392
0 SARAL
1 39086U 13009A   13283.67169968  .00002513  00000-0  93209-3 0  2572
2 39086 098.5540 110.4970 0001571 022.3642 337.8089 14.32274652 32519
0 SARAL
1 39086U 13009A   13283.81140918 -.00000147  00000-0 -38499-4 0  2587
2 39086 098.5461 110.6320 0000972 036.9123 323.1579 14.32263402 32536
0 SARAL
1 39086U 13009A   13284.09085808 -.00001633  00000-0 -58978-3 0  2599
2 39086 098.5456 110.9070 0000657 019.8173 340.2652 14.32254269 32577
0 SARAL
1 39086U 13009A   13284.30044561 -.00002912  00000-0 -10642-2 0  2602
2 39086 098.5453 111.1132 0000294 056.3808 303.7129 14.32246398 32605
0 SARAL
1 39086U 13009A   13286.04697378 -.00003536  00000-0 -12966-2 0  2621
2 39086 098.5444 112.8355 0000751 074.8133 285.3265 14.32232518 32856
0 SARAL
1 39086U 13009A   13286.81543532 -.00000993  00000-0 -35236-3 0  2639
2 39086 098.5446 113.5924 0000679 062.9060 297.2247 14.32240657 32961
0 SARAL
1 39086U 13009A   13288.07292193 -.00000000  00000-0  16144-4 0  2640
2 39086 098.5444 114.8319 0000756 050.4642 309.6601 14.32244306 33143
0 SARAL
1 39086U 13009A   13289.33040955  .00000226  00000-0  10011-3 0  2653
2 39086 098.5436 116.0704 0000742 051.6082 308.5163 14.32245760 33328
0 SARAL
1 39086U 13009A   13290.58789754  .00000130  00000-0  64291-4 0  2697
2 39086 098.5432 117.3099 0000697 056.8520 303.2735 14.32245820 33502
0 SARAL
1 39086U 13009A   13291.77552410  .00000125  00000-0  62601-4 0  2705
2 39086 098.5430 118.4803 0000643 054.5336 305.5916 14.32246381 33673
0 SARAL
1 39086U 13009A   13292.82342964  .00000141  00000-0  68483-4 0  2716
2 39086 098.5432 119.5134 0000633 049.5204 310.6029 14.32246783 33826
0 SARAL
1 39086U 13009A   13294.08091660  .00000004  00000-0  17556-4 0  2724
2 39086 098.5433 120.7526 0000588 052.0354 308.0863 14.32246427 34003
0 SARAL
1 39086U 13009A   13295.33840395  .00000070  00000-0  41982-4 0  2734
2 39086 098.5426 121.9919 0000517 051.8120 308.3124 14.32246831 34185
